{"type": "FeatureCollection", "features": [ {"type": "Feature", "properties": {"norad_id": 66820, "name": "KOMPSAT-7", "group": "last-30-days", "lat": -56.66795297892085, "lon": 110.69695265729442, "alt_km": 564.3331158768742, "timestamp": "2025-12-22T18:58:52.139258+00:00", "meta": {"OBJECT_NAME": "KOMPSAT-7", "OBJECT_ID": "2025-279A", "EPOCH": "2025-12-22T06:43:26.332896", "MEAN_MOTION": 15.00655371, "ECCENTRICITY": 0.00110794, "INCLINATION": 97.645, "RA_OF_ASC_NODE": 301.9794, "ARG_OF_PERICENTER": 231.7828, "MEAN_ANOMALY": 128.2399, "EPHEMERIS_TYPE": 0, "CLASSIFICATION_TYPE": "U", "NORAD_CAT_ID": 66820, "ELEMENT_SET_NO": 999, "REV_AT_EPOCH": 308, "BSTAR": 0.00024526026, "MEAN_MOTION_DOT": 3.047e-05, "MEAN_MOTION_DDOT": 0}, "tle": {"line1": "1 66820U 25279A   25356.28016589  .00003047  00000+0  24526-3 0  9992", "line2": "2 66820  97.6450 301.9794 0011079 231.7828 128.2399 15.00655371  3085"}}, "geometry": {"type": "Point", "coordinates": [110.69695265729442, -56.66795297892085]}}, {"type": "Feature", "properties": {"norad_id": 66821, "name": "STARLINK-35966", "group": "last-30-days", "lat": 6.770534386198586, "lon": 173.36573841240605, "alt_km": 411.3365218379813, "timestamp": "2025-12-22T18:58:52.139270+00:00", "meta": {"OBJECT_NAME": "STARLINK-35966", "OBJECT_ID": "2025-280A", "EPOCH": "2025-12-22T06:00:02.000160", "MEAN_MOTION": 15.525174, "ECCENTRICITY": 0.00032613, "INCLINATION": 70, "RA_OF_ASC_NODE": 172.3681, "ARG_OF_PERICENTER": 271.999, "MEAN_ANOMALY": 313.356, "EPHEMERIS_TYPE": 0, "CLASSIFICATION_TYPE": "U", "NORAD_CAT_ID": 66821, "ELEMENT_SET_NO": 999, "REV_AT_EPOCH": 442, "BSTAR": -0.00085601815, "MEAN_MOTION_DOT": -0.00052481, "MEAN_MOTION_DDOT": 0}, "tle": {"line1": "1 66821U 25280A   25356.25002315 -.00052481  00000+0 -85602-3 0  9994", "line2": "2 66821  70.0000 172.3681 0003261 271.9990 313.3560 15.52517400  4420"}}, "geometry": {"type": "Point", "coordinates": [173.36573841240605, 6.770534386198586]}}, {"type": "Feature", "properties": {"norad_id": 66822, "name": "STARLINK-35958", "group": "last-30-days", "lat": 8.564166300290943, "lon": 174.03026452695713, "alt_km": 411.2130418746401, "timestamp": "2025-12-22T18:58:52.139281+00:00", "meta": {"OBJECT_NAME": "STARLINK-35958", "OBJECT_ID": "2025-280B", "EPOCH": "2025-12-22T06:00:02.000160", "MEAN_MOTION": 15.52511886, "ECCENTRICITY": 0.0003284, "INCLINATION": 69.9998, "RA_OF_ASC_NODE": 172.3666, "ARG_OF_PERICENTER": 270.463, "MEAN_ANOMALY": 316.8079, "EPHEMERIS_TYPE": 0, "CLASSIFICATION_TYPE": "U", "NORAD_CAT_ID": 66822, "ELEMENT_SET_NO": 999, "REV_AT_EPOCH": 442, "BSTAR": -0.00077698812, "MEAN_MOTION_DOT": -0.00047671, "MEAN_MOTION_DDOT": 0}, "tle": {"line1": "1 66822U 25280B   25356.25002315 -.00047671  00000+0 -77699-3 0  9997", "line2": "2 66822  69.9998 172.3666 0003284 270.4630 316.8079 15.52511886  4422"}}, "geometry": {"type": "Point", "coordinates": [174.03026452695713, 8.564166300290943]}}, {"type": "Feature", "properties": {"norad_id": 66823, "name": "STARLINK-35957", "group": "last-30-days", "lat": 10.382223967650205, "lon": 174.70856769947488, "alt_km": 410.98275988456044, "timestamp": "2025-12-22T18:58:52.139293+00:00", "meta": {"OBJECT_NAME": "STARLINK-35957", "OBJECT_ID": "2025-280C", "EPOCH": "2025-12-22T06:00:02.000160", "MEAN_MOTION": 15.52428614, "ECCENTRICITY": 0.00034085, "INCLINATION": 69.9997, "RA_OF_ASC_NODE": 172.3629, "ARG_OF_PERICENTER": 267.4423, "MEAN_ANOMALY": 321.7864, "EPHEMERIS_TYPE": 0, "CLASSIFICATION_TYPE": "U", "NORAD_CAT_ID": 66823, "ELEMENT_SET_NO": 999, "REV_AT_EPOCH": 442, "BSTAR": 0.0014006618, "MEAN_MOTION_DOT": 0.00086667, "MEAN_MOTION_DDOT": 0}, "tle": {"line1": "1 66823U 25280C   25356.25002315  .00086667  00000+0  14007-2 0  9997", "line2": "2 66823  69.9997 172.3629 0003408 267.4423 321.7864 15.52428614  4428"}}, "geometry": {"type": "Point", "coordinates": [174.70856769947488, 10.382223967650205]}}, {"type": "Feature", "properties": {"norad_id": 66824, "name": "STARLINK-35896", "group": "last-30-days", "lat": 12.162463972398754, "lon": 175.38336683329518, "alt_km": 410.81478724156204, "timestamp": "2025-12-22T18:58:52.139303+00:00", "meta": {"OBJECT_NAME": "STARLINK-35896", "OBJECT_ID": "2025-280D", "EPOCH": "2025-12-22T06:00:02.000160", "MEAN_MOTION": 15.52513575, "ECCENTRICITY": 0.00034612, "INCLINATION": 69.9998, "RA_OF_ASC_NODE": 172.3617, "ARG_OF_PERICENTER": 271.5849, "MEAN_ANOMALY": 319.5209, "EPHEMERIS_TYPE": 0, "CLASSIFICATION_TYPE": "U", "NORAD_CAT_ID": 66824, "ELEMENT_SET_NO": 999, "REV_AT_EPOCH": 442, "BSTAR": -0.00083770592, "MEAN_MOTION_DOT": -0.00051364, "MEAN_MOTION_DDOT": 0}, "tle": {"line1": "1 66824U 25280D   25356.25002315 -.00051364  00000+0 -83771-3 0  9991", "line2": "2 66824  69.9998 172.3617 0003461 271.5849 319.5209 15.52513575  4423"}}, "geometry": {"type": "Point", "coordinates": [175.38336683329518, 12.162463972398754]}}, {"type": "Feature", "properties": {"norad_id": 66825, "name": "STARLINK-35476", "group": "last-30-days", "lat": 13.959608066883876, "lon": 176.07312668783715, "alt_km": 410.6924494335526, "timestamp": "2025-12-22T18:58:52.139313+00:00", "meta": {"OBJECT_NAME": "STARLINK-35476", "OBJECT_ID": "2025-280E", "EPOCH": "2025-12-22T06:00:02.000160", "MEAN_MOTION": 15.52515174, "ECCENTRICITY": 0.00032751, "INCLINATION": 69.9998, "RA_OF_ASC_NODE": 172.3591, "ARG_OF_PERICENTER": 268.8602, "MEAN_ANOMALY": 324.1664, "EPHEMERIS_TYPE": 0, "CLASSIFICATION_TYPE": "U", "NORAD_CAT_ID": 66825, "ELEMENT_SET_NO": 999, "REV_AT_EPOCH": 427, "BSTAR": -0.0008817538, "MEAN_MOTION_DOT": -0.00054039, "MEAN_MOTION_DDOT": 0}, "tle": {"line1": "1 66825U 25280E   25356.25002315 -.00054039  00000+0 -88175-3 0  9997", "line2": "2 66825  69.9998 172.3591 0003275 268.8602 324.1664 15.52515174  4271"}}, "geometry": {"type": "Point", "coordinates": [176.07312668783715, 13.959608066883876]}}, {"type": "Feature", "properties": {"norad_id": 66826, "name": "STARLINK-35898", "group": "last-30-days", "lat": 15.765682829757678, "lon": 176.77717888530844, "alt_km": 410.2482626603123, "timestamp": "2025-12-22T18:58:52.139323+00:00", "meta": {"OBJECT_NAME": "STARLINK-35898", "OBJECT_ID": "2025-280F", "EPOCH": "2025-12-22T06:00:02.000160", "MEAN_MOTION": 15.52430224, "ECCENTRICITY": 0.00033723, "INCLINATION": 69.9999, "RA_OF_ASC_NODE": 172.3556, "ARG_OF_PERICENTER": 270.8381, "MEAN_ANOMALY": 324.1359, "EPHEMERIS_TYPE": 0, "CLASSIFICATION_TYPE": "U", "NORAD_CAT_ID": 66826, "ELEMENT_SET_NO": 999, "REV_AT_EPOCH": 442, "BSTAR": 0.0013830565, "MEAN_MOTION_DOT": 0.00085568, "MEAN_MOTION_DDOT": 0}, "tle": {"line1": "1 66826U 25280F   25356.25002315  .00085568  00000+0  13831-2 0  9993", "line2": "2 66826  69.9999 172.3556 0003372 270.8381 324.1359 15.52430224  4429"}}, "geometry": {"type": "Point", "coordinates": [176.77717888530844, 15.765682829757678]}}, {"type": "Feature", "properties": {"norad_id": 66827, "name": "STARLINK-35959", "group": "last-30-days", "lat": 17.541490251505067, "lon": 177.48483868982555, "alt_km": 410.13410196945006, "timestamp": "2025-12-22T18:58:52.139333+00:00", "meta": {"OBJECT_NAME": "STARLINK-35959", "OBJECT_ID": "2025-280G", "EPOCH": "2025-12-22T06:00:02.000160", "MEAN_MOTION": 15.5251885, "ECCENTRICITY": 0.00031596, "INCLINATION": 69.9999, "RA_OF_ASC_NODE": 172.3543, "ARG_OF_PERICENTER": 272.2159, "MEAN_ANOMALY": 324.6394, "EPHEMERIS_TYPE": 0, "CLASSIFICATION_TYPE": "U", "NORAD_CAT_ID": 66827, "ELEMENT_SET_NO": 999, "REV_AT_EPOCH": 442, "BSTAR": -0.00095875812, "MEAN_MOTION_DOT": -0.00058716, "MEAN_MOTION_DDOT": 0}, "tle": {"line1": "1 66827U 25280G   25356.25002315 -.00058716  00000+0 -95876-3 0  9991", "line2": "2 66827  69.9999 172.3543 0003159 272.2159 324.6394 15.52518850  4424"}}, "geometry": {"type": "Point", "coordinates": [177.48483868982555, 17.541490251505067]}}, {"type": "Feature", "properties": {"norad_id": 66828, "name": "STARLINK-35982", "group": "last-30-days", "lat": 21.11450260388842, "lon": 178.95464941778243, "alt_km": 409.67058611968787, "timestamp": "2025-12-22T18:58:52.139343+00:00", "meta": {"OBJECT_NAME": "STARLINK-35982", "OBJECT_ID": "2025-280H", "EPOCH": "2025-12-22T06:00:02.000160", "MEAN_MOTION": 15.52517147, "ECCENTRICITY": 0.00031927, "INCLINATION": 69.9999, "RA_OF_ASC_NODE": 172.3498, "ARG_OF_PERICENTER": 273.3495, "MEAN_ANOMALY": 327.3383, "EPHEMERIS_TYPE": 0, "CLASSIFICATION_TYPE": "U", "NORAD_CAT_ID": 66828, "ELEMENT_SET_NO": 999, "REV_AT_EPOCH": 442, "BSTAR": -0.00093119193, "MEAN_MOTION_DOT": -0.00057042, "MEAN_MOTION_DDOT": 0}, "tle": {"line1": "1 66828U 25280H   25356.25002315 -.00057042  00000+0 -93119-3 0  9991", "line2": "2 66828  69.9999 172.3498 0003192 273.3495 327.3383 15.52517147  4422"}}, "geometry": {"type": "Point", "coordinates": [178.95464941778243, 21.11450260388842]}}, {"type": "Feature", "properties": {"norad_id": 66829, "name": "STARLINK-36084", "group": "last-30-days", "lat": 19.305794127278638, "lon": 178.2000032482838, "alt_km": 409.95752784922206, "timestamp": "2025-12-22T18:58:52.139355+00:00", "meta": {"OBJECT_NAME": "STARLINK-36084", "OBJECT_ID": "2025-280J", "EPOCH": "2025-12-22T06:00:02.000160", "MEAN_MOTION": 15.5258438, "ECCENTRICITY": 0.00029333, "INCLINATION": 70, "RA_OF_ASC_NODE": 172.3502, "ARG_OF_PERICENTER": 273.0718, "MEAN_ANOMALY": 325.653, "EPHEMERIS_TYPE": 0, "CLASSIFICATION_TYPE": "U", "NORAD_CAT_ID": 66829, "ELEMENT_SET_NO": 999, "REV_AT_EPOCH": 426, "BSTAR": -0.0025662115, "MEAN_MOTION_DOT": -0.00155356, "MEAN_MOTION_DDOT": 0}, "tle": {"line1": "1 66829U 25280J   25356.25002315 -.00155356  00000+0 -25662-2 0  9996", "line2": "2 66829  70.0000 172.3502 0002933 273.0718 325.6530 15.52584380  4262"}}, "geometry": {"type": "Point", "coordinates": [178.2000032482838, 19.305794127278638]}}]}